#aV2023  7  7  0  0  0.00000000     288 DD+AD WGS84 FIT  NGA
## 2269 432000.00000000   300.00000000 60132 0.0000000000000
+   32     1  2  3  4  5  6  7  8  9 10 11 12 13 14 15 16 17
+         18 19 20 21 22 23 24 25 26 27 28 29 30 31 32  0  0
+          0  0  0  0  0  0  0  0  0  0  0  0  0  0  0  0  0
+          0  0  0  0  0  0  0  0  0  0  0  0  0  0  0  0  0
+          0  0  0  0  0  0  0  0  0  0  0  0  0  0  0  0  0
++         2  2  2  2  2  2  2  2  2  2  2  2  2  2  2  2  2
++         2  2  2  2  2  2  2  2  2  2  2  2  2  2  2  0  0
++         0  0  0  0  0  0  0  0  0  0  0  0  0  0  0  0  0
++         0  0  0  0  0  0  0  0  0  0  0  0  0  0  0  0  0
++         0  0  0  0  0  0  0  0  0  0  0  0  0  0  0  0  0
%c cc cc ccc ccc cccc cccc cccc cccc ccccc ccccc ccccc ccccc
%c cc cc ccc ccc cccc cccc cccc cccc ccccc ccccc ccccc ccccc
%f  0.0000000  0.000000000  0.00000000000  0.000000000000000
%f  0.0000000  0.000000000  0.00000000000  0.000000000000000
%i    0    0    0    0      0      0      0      0         0
%i    0    0    0    0      0      0      0      0         0
/*      NGA, ST. LOUIS,MO.                                  
/*   EPHEMERIS COMPUTED FROM 2 DAYS OF DATA                 
/*   EPOCHA v8 SMOOTHER                                     
/*   G2139 IERS2010 SATIGS SATAPC                           
*  2023  7  7 23 15  0.00000000
P  1 -13394.569655  15622.377252  16248.864156    174.041823                    
V  1   1917.755289 -21332.353836  21969.679309     -0.020034                    
P  2 -14697.490413   9612.452557  20384.045013   -578.422707                    
V  2    600.634565 -24812.555372  12592.958650      0.037802                    
P  3 -22324.774808  13067.482164  -5879.650416   -241.641131                    
V  3  -7597.386583    623.945649  31081.598144      0.152832                    
P  4 -13535.655074   8027.017111 -21399.632481     89.385425                    
V  4 -20408.281721 -17949.704716   6057.972918      0.107320                    
P  5  24455.215482  -3354.655788 -10133.543255   -134.028669                    
V  5 -10543.975891   7173.325490 -28214.843302     -0.014705                    
P  6   6161.096485  21427.616373 -14303.199727    579.891028                    
V  6  -4351.147417  17788.771742  24764.713934     -0.031855                    
P  7  -5829.118830  25430.668089  -2819.044910    131.494019                    
V  7  -2939.931409  -4685.702639 -31557.111488     -0.106878                    
P  8 -21345.152150  -2040.369253  15850.367561   -131.067382                    
V  8 -15061.725216 -13442.701018 -21524.134767     -0.018353                    
P  9  -3808.995161  15768.109776 -21097.274573   -117.694475                    
V  9 -21697.583780 -15474.983248  -7718.469556      0.091904                    
P 10  -4732.780345 -14128.749228  22156.680400    -44.261509                    
V 10  25770.676840 -10042.411126  -1212.214279     -0.015413                    
P 11  13657.915898   7565.955784 -21482.254745   -266.540957                    
V 11  -5763.063584  26665.704672   5684.534142     -0.159323                    
P 12  24436.662466  -9932.931551  -2979.062557   -397.948868                    
V 12   4111.451655   1535.078324  31604.887696     -0.046464                    
P 13  21339.812595  11151.845349  11262.107292    544.149940                    
V 13   8525.438162  11894.895351 -27283.205166      0.049804                    
P 14    962.959182  15878.775856  21267.578504    115.130086                    
V 14 -25630.347281   8612.934977  -5432.412446      0.121085                    
P 15  21237.311488  -1014.674967  15607.867917     55.916503                    
V 15  16598.602560  12528.153781 -20889.719995      0.035511                    
P 16 -23365.282939  -2516.490334 -13107.582021   -483.335377                    
V 16  14803.679759  -6249.400660 -25351.768056      0.042764                    
P 17  10980.976829  21033.110937  12253.152606    720.454556                    
V 17 -12405.598507  -8488.324362  26732.142198      0.008683                    
P 18   4657.641406 -26052.112436   -492.931414   -337.018337                    
V 18   2412.425087   1033.574711 -32141.668470     -0.144162                    
P 19  16511.154127  20486.343503   4506.011202    340.842893                    
V 19  -5739.814723  -2625.097192  31135.642946      0.051254                    
P 20  19394.633621   3088.188041 -17758.664721    423.892782                    
V 20 -18413.662231  13458.911416 -17919.759567     -0.020595                    
P 21 -15264.706492   5643.563920  21363.981006    152.398006                    
V 21    506.407764 -26089.390448   8311.931320     -0.004046                    
P 22 -18227.994438 -19338.285728   2388.069626    509.441932                    
V 22   3565.399583   -193.888063  31514.055101      0.056182                    
P 23   8890.243792 -17204.191381  18108.009058     40.855274                    
V 23  21703.763538  -7778.413780 -18204.464219      0.040261                    
P 24  14432.702897 -11501.190015  18588.407285   -250.435012                    
V 24    661.030973  24675.650478  14891.928234     -0.125016                    
P 25  15714.671024 -16769.011089 -13395.907551    454.700215                    
V 25  16329.328133  -3997.682283  25000.272593      0.023962                    
P 26 -15249.027492  -9084.591896 -19968.535882    237.117752                    
V 26  22145.124924 -11887.620531 -11227.010015     -0.010790                    
P 27 -22839.144228 -12263.242841   6448.024223      1.453053                    
V 27  -5260.582610  -6936.022301 -30225.356857     -0.077338                    
P 28  -6250.410526 -22609.010416 -12482.817775     83.183800                    
V 28   4036.549965 -15464.811754  26026.796469     -0.008656                    
P 29   6364.189778 -14057.560638 -21658.870867   -604.956163                    
V 29  20410.243906  18199.896429  -5924.607468     -0.009823                    
P 30    711.668358  25682.347620   6272.765735   -505.886833                    
V 30  -4843.178331   7250.499196 -29961.396181      0.026669                    
P 31 -12106.984973 -12873.945929 -19872.676112   -219.642796                    
V 31   5570.838277 -24416.974602  12953.586052     -0.006903                    
P 32 -14344.909114 -20135.649552  10154.312576   -516.495788                    
V 32  11348.089571   5874.217093  27990.745380     -0.078524                    
EOF
